{"type":"Feature","properties":{"MUN":"BARNEGAT LIGHT BORO","COUNTY":"OCEAN","MUN_LABEL":"Barnegat Light Borough","MUN_TYPE":"Borough","NAME":"Barnegat Light Borough","GNIS_NAME":"Borough of Barnegat Light"},"geometry":{"type":"Polygon","coordinates":[[[-74.0942773,39.7602431],[-74.0927414,39.7572688],[-74.092715,39.7572255],[-74.0927153,39.7571824],[-74.0927367,39.7571619],[-74.0927874,39.7571538],[-74.0928273,39.7571642],[-74.092891,39.7571994],[-74.0937273,39.7577144],[-74.094193,39.7580368],[-74.0944266,39.7581734],[-74.0944745,39.7581879],[-74.0945278,39.7581881],[-74.0946238,39.7581638],[-74.0947894,39.7581068],[-74.0951602,39.7580135],[-74.0952429,39.7580096],[-74.0953788,39.7579937],[-74.095587,39.7579327],[-74.0959899,39.7578272],[-74.0964334,39.7576333],[-74.097137,39.7573623],[-74.0977128,39.7570702],[-74.0979142,39.7569213],[-74.0984019,39.7565606],[-74.0990821,39.7559625],[-74.0998355,39.7551425],[-74.1001981,39.7546358],[-74.1005411,39.754053],[-74.1009876,39.7528536],[-74.1011371,39.7522215],[-74.1012788,39.7518297],[-74.1012815,39.7517894],[-74.1012764,39.7517462],[-74.1012694,39.7515613],[-74.1012829,39.7514621],[-74.1013023,39.751407],[-74.1013185,39.751368],[-74.1014572,39.7511342],[-74.1015105,39.7510491],[-74.1015487,39.751003],[-74.1015977,39.7509563],[-74.101936,39.7507067],[-74.10218,39.7505506],[-74.1023856,39.7504319],[-74.1029187,39.7501458],[-74.1032306,39.7500119],[-74.1038032,39.7496668],[-74.1057032,39.7481627],[-74.1068533,39.747328],[-74.1080011,39.7464022],[-74.1090452,39.7454916],[-74.1098497,39.7447888],[-74.1106582,39.7438641],[-74.111137,39.7433088],[-74.1113772,39.7430167],[-74.1118215,39.7424568],[-74.1121081,39.7420873],[-74.1123685,39.7417687],[-74.1126049,39.7413856],[-74.1130846,39.7406639],[-74.1133625,39.7402987],[-74.113732,39.7397519],[-74.1139085,39.7395351],[-74.1142953,39.7389684],[-74.1144242,39.7387597],[-74.1218102,39.7415238],[-74.1230377,39.7421823],[-74.1200681,39.7448805],[-74.117743,39.7490813],[-74.1157064,39.7505729],[-74.1144146,39.7526867],[-74.1158073,39.7591743],[-74.1061944,39.7657506],[-74.104382,39.7669903],[-74.1013004,39.7649212],[-74.0955674,39.7610197],[-74.0942773,39.7602431]]]}}
