{"type":"FeatureCollection","name":"barnegat_light_road_centerlines","metadata":{"source":"NJOGIS NG911 Road Centerlines (Tran_road)","url":"https://services2.arcgis.com/XVOqAjTOJ5P6ngMu/arcgis/rest/services/Tran_road/FeatureServer/0","query_url":"https://services2.arcgis.com/XVOqAjTOJ5P6ngMu/arcgis/rest/services/Tran_road/FeatureServer/0/query","retrieved_at_utc":"2026-09-04T20:04:55.863250+00:00","source_last_edit_date":1785341586960,"out_sr":4326,"query_envelope_wgs84":[-74.1230377,39.7387597,-74.092715,39.7669903],"spatial_relationship":"esriSpatialRelIntersects","boundary_file":"barnegat_light_boundary.geojson","boundary_sha256":"6eb01608a063e2de376c494884fc629fed6eabba09c2cae338bc365059cec37b","fields":["OBJECTID","PRIMENAME","ELEVTYP_F","ELEVTYP_T"],"feature_count":178,"complete_objectid_inventory_verified":true,"municipal_clipping":"Envelope selection only; clip against the actual municipal boundary in the application."},"features":[{"type":"Feature","id":1581,"properties":{"OBJECTID":1581,"PRIMENAME":"Bayview Avenue","ELEVTYP_F":0,"ELEVTYP_T":0},"geometry":{"type":"LineString","coordinates":[[-74.1156145908047,39.7474647268157],[-74.115721332094,39.7473675609837],[-74.1159122522279,39.7471751585267],[-74.1161173122477,39.7469470564106],[-74.1162831729227,39.7467388929701]]}},{"type":"Feature","id":3696,"properties":{"OBJECTID":3696,"PRIMENAME":"High Bar Way","ELEVTYP_F":0,"ELEVTYP_T":0},"geometry":{"type":"LineString","coordinates":[[-74.1196367856145,39.7555865779208],[-74.1194666034874,39.7555890943747]]}},{"type":"Feature","id":3743,"properties":{"OBJECTID":3743,"PRIMENAME":"Bayview Avenue","ELEVTYP_F":0,"ELEVTYP_T":0},"geometry":{"type":"LineString","coordinates":[[-74.1093526215082,39.7607122921016],[-74.1098422167979,39.7599111348485]]}},{"type":"Feature","id":4607,"properties":{"OBJECTID":4607,"PRIMENAME":"Albright Road","ELEVTYP_F":0,"ELEVTYP_T":0},"geometry":{"type":"LineString","coordinates":[[-74.120158503297,39.7500226288672],[-74.1222148872673,39.7517685140721],[-74.1223158823412,39.751854257689]]}},{"type":"Feature","id":5576,"properties":{"OBJECTID":5576,"PRIMENAME":"West 16th Street","ELEVTYP_F":0,"ELEVTYP_T":0},"geometry":{"type":"LineString","coordinates":[[-74.111958324068,39.7519503951709],[-74.1112974058922,39.7517195135554],[-74.1102181359477,39.7513438552537]]}},{"type":"Feature","id":6376,"properties":{"OBJECTID":6376,"PRIMENAME":"Bayview Avenue","ELEVTYP_F":0,"ELEVTYP_T":0},"geometry":{"type":"LineString","coordinates":[[-74.1098422167979,39.7599111348485],[-74.1103233824263,39.7591205731782]]}},{"type":"Feature","id":6690,"properties":{"OBJECTID":6690,"PRIMENAME":"West 26th Street","ELEVTYP_F":0,"ELEVTYP_T":0},"geometry":{"type":"LineString","coordinates":[[-74.1150284485888,39.7433701258201],[-74.1154001425222,39.7435020976072],[-74.1175497424111,39.7442756283982]]}},{"type":"Feature","id":6840,"properties":{"OBJECTID":6840,"PRIMENAME":"East 18th Street","ELEVTYP_F":0,"ELEVTYP_T":0},"geometry":{"type":"LineString","coordinates":[[-74.1111795377441,39.7497444899558],[-74.1093532226554,39.7490823309391]]}},{"type":"Feature","id":10262,"properties":{"OBJECTID":10262,"PRIMENAME":"Bayview Avenue","ELEVTYP_F":0,"ELEVTYP_T":0},"geometry":{"type":"LineString","coordinates":[[-74.111958324068,39.7519503951709],[-74.112005335787,39.7518380429637],[-74.1120943935074,39.7516489031212],[-74.1122067852438,39.7514276359206],[-74.1123521704851,39.7511261467369]]}},{"type":"Feature","id":14174,"properties":{"OBJECTID":14174,"PRIMENAME":"Sunset Boulevard","ELEVTYP_F":0,"ELEVTYP_T":0},"geometry":{"type":"LineString","coordinates":[[-74.1192528476638,39.7522835823019],[-74.1192380225943,39.752334050159],[-74.119277909351,39.7529128997573]]}},{"type":"Feature","id":14258,"properties":{"OBJECTID":14258,"PRIMENAME":"Bayview Avenue","ELEVTYP_F":0,"ELEVTYP_T":0},"geometry":{"type":"LineString","coordinates":[[-74.1127933900042,39.7503198454873],[-74.1128993136597,39.7501605218542],[-74.1130811811037,39.7499362454276],[-74.1132956449167,39.749683168779],[-74.1133955661595,39.7495729134979]]}},{"type":"Feature","id":18346,"properties":{"OBJECTID":18346,"PRIMENAME":"East 19th Street","ELEVTYP_F":0,"ELEVTYP_T":0},"geometry":{"type":"LineString","coordinates":[[-74.1095573867967,39.7481931759115],[-74.1096670073305,39.7482322306917],[-74.110346047923,39.7484741454776],[-74.1116646914222,39.7489439128769]]}},{"type":"Feature","id":24475,"properties":{"OBJECTID":24475,"PRIMENAME":"Hamamilda Way","ELEVTYP_F":0,"ELEVTYP_T":0},"geometry":{"type":"LineString","coordinates":[[-74.1181545358922,39.7383074527706],[-74.1205209390496,39.7391673624643]]}},{"type":"Feature","id":25189,"properties":{"OBJECTID":25189,"PRIMENAME":"East 7th Street","ELEVTYP_F":0,"ELEVTYP_T":0},"geometry":{"type":"LineString","coordinates":[[-74.1037462560155,39.7577479724096],[-74.1058933467946,39.758510672266]]}},{"type":"Feature","id":26852,"properties":{"OBJECTID":26852,"PRIMENAME":"18th Street","ELEVTYP_F":0,"ELEVTYP_T":0},"geometry":{"type":"LineString","coordinates":[[-74.1093532226554,39.7490823309391],[-74.109097242253,39.7489895184117]]}},{"type":"Feature","id":31769,"properties":{"OBJECTID":31769,"PRIMENAME":"Broadway","ELEVTYP_F":0,"ELEVTYP_T":0},"geometry":{"type":"LineString","coordinates":[[-74.1079257824667,39.7621432248073],[-74.1079845976898,39.7623417293095]]}},{"type":"Feature","id":35725,"properties":{"OBJECTID":35725,"PRIMENAME":"Broadway","ELEVTYP_F":0,"ELEVTYP_T":0},"geometry":{"type":"LineString","coordinates":[[-74.1076042723223,39.7610578423439],[-74.1077240449757,39.7614621900971],[-74.1079257824667,39.7621432248073]]}},{"type":"Feature","id":42081,"properties":{"OBJECTID":42081,"PRIMENAME":"Central Avenue","ELEVTYP_F":0,"ELEVTYP_T":0},"geometry":{"type":"LineString","coordinates":[[-74.1102181359477,39.7513438552537],[-74.1098497129835,39.7519566707077],[-74.1097445850826,39.7521308195298]]}},{"type":"Feature","id":46106,"properties":{"OBJECTID":46106,"PRIMENAME":"Auburn Road","ELEVTYP_F":0,"ELEVTYP_T":0},"geometry":{"type":"LineString","coordinates":[[-74.1192766639833,39.7507032543329],[-74.120158503297,39.7500226288672]]}},{"type":"Feature","id":48853,"properties":{"OBJECTID":48853,"PRIMENAME":"Long Beach Boulevard","ELEVTYP_F":0,"ELEVTYP_T":0},"geometry":{"type":"LineString","coordinates":[[-74.1171838060623,39.7397925457175],[-74.1171197078642,39.7399055221886],[-74.1170786487084,39.7399778914839],[-74.1169796580855,39.7401421836204]]}},{"type":"Feature","id":48883,"properties":{"OBJECTID":48883,"PRIMENAME":"Bayview Avenue","ELEVTYP_F":0,"ELEVTYP_T":0},"geometry":{"type":"LineString","coordinates":[[-74.1183302189458,39.7416564276271],[-74.1183793500508,39.7415243117941],[-74.1184547630923,39.7412886126758],[-74.1184923948999,39.7411779291903],[-74.1185114550295,39.7410814605966],[-74.1185117703552,39.7410242732186],[-74.1184983350386,39.7409455704502],[-74.1184663159544,39.7408704041855],[-74.1184615194954,39.740863195057],[-74.118406601679,39.7407808421157]]}},{"type":"Feature","id":49878,"properties":{"OBJECTID":49878,"PRIMENAME":"Sunset Boulevard","ELEVTYP_F":0,"ELEVTYP_T":0},"geometry":{"type":"LineString","coordinates":[[-74.1194666034874,39.7555890943747],[-74.1195293324003,39.7565232009018],[-74.1196161533806,39.7578823582371],[-74.1197267067826,39.7581029893639]]}},{"type":"Feature","id":52196,"properties":{"OBJECTID":52196,"PRIMENAME":"Central Avenue","ELEVTYP_F":0,"ELEVTYP_T":0},"geometry":{"type":"LineString","coordinates":[[-74.1068597557717,39.7569106207117],[-74.1065369722134,39.7574440150236]]}},{"type":"Feature","id":53980,"properties":{"OBJECTID":53980,"PRIMENAME":"Central Avenue","ELEVTYP_F":0,"ELEVTYP_T":0},"geometry":{"type":"LineString","coordinates":[[-74.1121483176691,39.7481471440979],[-74.1116646914222,39.7489439128769]]}},{"type":"Feature","id":56147,"properties":{"OBJECTID":56147,"PRIMENAME":"West 24th Street","ELEVTYP_F":0,"ELEVTYP_T":0},"geometry":{"type":"LineString","coordinates":[[-74.1140634607268,39.7449685529004],[-74.1143910707033,39.7450860225267],[-74.116862494486,39.7459640284265]]}},{"type":"Feature","id":57609,"properties":{"OBJECTID":57609,"PRIMENAME":"West 17th Street","ELEVTYP_F":0,"ELEVTYP_T":0},"geometry":{"type":"LineString","coordinates":[[-74.1107022715787,39.7505384465352],[-74.1111364402583,39.7506979861861],[-74.1123521704851,39.7511261467369]]}},{"type":"Feature","id":62689,"properties":{"OBJECTID":62689,"PRIMENAME":"Bayview Avenue","ELEVTYP_F":0,"ELEVTYP_T":0},"geometry":{"type":"LineString","coordinates":[[-74.1115543355655,39.753742580957],[-74.1115741348103,39.7535740205968],[-74.111612763392,39.7532952639663],[-74.1116557537565,39.7530630588824],[-74.1116939410795,39.7528629861897],[-74.1117004337342,39.752834152548]]}},{"type":"Feature","id":63878,"properties":{"OBJECTID":63878,"PRIMENAME":"West 18th Street","ELEVTYP_F":0,"ELEVTYP_T":0},"geometry":{"type":"LineString","coordinates":[[-74.1127933900042,39.7503198454873],[-74.1111795377441,39.7497444899558]]}},{"type":"Feature","id":64205,"properties":{"OBJECTID":64205,"PRIMENAME":"Seaview Avenue","ELEVTYP_F":0,"ELEVTYP_T":0},"geometry":{"type":"LineString","coordinates":[[-74.1057698534309,39.7536044746884],[-74.1058049232016,39.7533676222917],[-74.1058978032523,39.753223287089],[-74.1060919230886,39.7531985675161]]}},{"type":"Feature","id":64613,"properties":{"OBJECTID":64613,"PRIMENAME":"East 21st Street","ELEVTYP_F":0,"ELEVTYP_T":0},"geometry":{"type":"LineString","coordinates":[[-74.112625226889,39.7473603454371],[-74.1114282954042,39.7469262812525],[-74.1108810200939,39.7467278080126],[-74.1107293266911,39.7466727952949]]}},{"type":"Feature","id":64688,"properties":{"OBJECTID":64688,"PRIMENAME":"Sunset Boulevard","ELEVTYP_F":0,"ELEVTYP_T":0},"geometry":{"type":"LineString","coordinates":[[-74.119277909351,39.7529128997573],[-74.1193231027898,39.753568311088]]}},{"type":"Feature","id":64826,"properties":{"OBJECTID":64826,"PRIMENAME":"Central Avenue","ELEVTYP_F":0,"ELEVTYP_T":0},"geometry":{"type":"LineString","coordinates":[[-74.1065369722134,39.7574440150236],[-74.1063800446316,39.7577040835232]]}},{"type":"Feature","id":65441,"properties":{"OBJECTID":65441,"PRIMENAME":"Central Avenue","ELEVTYP_F":0,"ELEVTYP_T":0},"geometry":{"type":"LineString","coordinates":[[-74.1145493523382,39.7441637643793],[-74.1140634607268,39.7449685529004]]}},{"type":"Feature","id":65546,"properties":{"OBJECTID":65546,"PRIMENAME":"West 5th Street","ELEVTYP_F":0,"ELEVTYP_T":0},"geometry":{"type":"LineString","coordinates":[[-74.1076042723223,39.7610578423439],[-74.1082605382567,39.7613070141255],[-74.1084123025029,39.7613616221791],[-74.108638576099,39.7614430406053]]}},{"type":"Feature","id":67525,"properties":{"OBJECTID":67525,"PRIMENAME":"West 23rd Street","ELEVTYP_F":0,"ELEVTYP_T":0},"geometry":{"type":"LineString","coordinates":[[-74.1162831729227,39.7467388929701],[-74.1146112292005,39.7461309416658],[-74.1135905415388,39.745753641693]]}},{"type":"Feature","id":67810,"properties":{"OBJECTID":67810,"PRIMENAME":"East 5th Street","ELEVTYP_F":0,"ELEVTYP_T":0},"geometry":{"type":"LineString","coordinates":[[-74.1042150462673,39.7598433516131],[-74.104933254643,39.760099068533]]}},{"type":"Feature","id":68290,"properties":{"OBJECTID":68290,"PRIMENAME":"Bayview Avenue","ELEVTYP_F":0,"ELEVTYP_T":0},"geometry":{"type":"LineString","coordinates":[[-74.1133955661595,39.7495729134979],[-74.1136218179563,39.749323196535],[-74.1138454456653,39.749084425255],[-74.1139945881916,39.7489168980386],[-74.1140719663115,39.7488432473506]]}},{"type":"Feature","id":69845,"properties":{"OBJECTID":69845,"PRIMENAME":"5th Street","ELEVTYP_F":0,"ELEVTYP_T":0},"geometry":{"type":"LineString","coordinates":[[-74.104933254643,39.760099068533],[-74.1051358471085,39.7601690016683],[-74.1063007940499,39.7605711316335],[-74.1076042723223,39.7610578423439]]}},{"type":"Feature","id":72775,"properties":{"OBJECTID":72775,"PRIMENAME":"Bayview Avenue","ELEVTYP_F":0,"ELEVTYP_T":0},"geometry":{"type":"LineString","coordinates":[[-74.1178054849459,39.7434006623961],[-74.1179739502787,39.7428277954183],[-74.1180494692333,39.7425670859394],[-74.1180650809203,39.7425157145845]]}},{"type":"Feature","id":73688,"properties":{"OBJECTID":73688,"PRIMENAME":"East 28th Street","ELEVTYP_F":0,"ELEVTYP_T":0},"geometry":{"type":"LineString","coordinates":[[-74.1143341335064,39.7411748961125],[-74.1144675009135,39.7412223382752],[-74.1147223122252,39.7413129787838],[-74.1160012370435,39.7417679004525]]}},{"type":"Feature","id":74573,"properties":{"OBJECTID":74573,"PRIMENAME":"Auburn Road","ELEVTYP_F":0,"ELEVTYP_T":0},"geometry":{"type":"LineString","coordinates":[[-74.120158503297,39.7500226288672],[-74.1210699212178,39.7493477768608]]}},{"type":"Feature","id":79677,"properties":{"OBJECTID":79677,"PRIMENAME":"West 14th Street","ELEVTYP_F":0,"ELEVTYP_T":0},"geometry":{"type":"LineString","coordinates":[[-74.1115543355655,39.753742580957],[-74.1092619548424,39.7529301886724]]}},{"type":"Feature","id":84798,"properties":{"OBJECTID":84798,"PRIMENAME":"Bayview Avenue","ELEVTYP_F":0,"ELEVTYP_T":0},"geometry":{"type":"LineString","coordinates":[[-74.1114809179103,39.7556613949217],[-74.1114852384781,39.7553861211713],[-74.1114998869076,39.7547035076575]]}},{"type":"Feature","id":85586,"properties":{"OBJECTID":85586,"PRIMENAME":"Bayview Avenue","ELEVTYP_F":0,"ELEVTYP_T":0},"geometry":{"type":"LineString","coordinates":[[-74.1140719663115,39.7488432473506],[-74.1141854938672,39.7487352056006],[-74.1145438702367,39.7484218197972],[-74.114832392951,39.748165388545],[-74.114837790761,39.7481606018781]]}},{"type":"Feature","id":85811,"properties":{"OBJECTID":85811,"PRIMENAME":"Auburn Road","ELEVTYP_F":0,"ELEVTYP_T":0},"geometry":{"type":"LineString","coordinates":[[-74.1162307498068,39.7501888131395],[-74.1165354236258,39.7504503777175],[-74.1172108050778,39.7510378597897],[-74.1176440123423,39.7514132220169],[-74.1177162916032,39.7514640315149],[-74.1177722632771,39.7514985342248],[-74.1178189596293,39.7515185656231],[-74.1178772978586,39.7515368221275],[-74.1179358283761,39.7515460474637],[-74.1179849474331,39.7515462091251],[-74.1180325504563,39.7515438680107],[-74.118076084511,39.7515376961311],[-74.1181455458468,39.7515190090048],[-74.118193481021,39.7515017327606],[-74.1182568192955,39.7514712193603]]}},{"type":"Feature","id":86298,"properties":{"OBJECTID":86298,"PRIMENAME":"Collier Road","ELEVTYP_F":0,"ELEVTYP_T":0},"geometry":{"type":"LineString","coordinates":[[-74.1208706576104,39.7535030647586],[-74.1200607483036,39.7541042840764],[-74.1199868969427,39.7541446479002],[-74.1199271500428,39.7541688039203],[-74.1198499616232,39.7541820866465],[-74.1197377620855,39.7541844096644],[-74.1197052244091,39.7541833212559],[-74.119536617016,39.7541776831304]]}},{"type":"Feature","id":91219,"properties":{"OBJECTID":91219,"PRIMENAME":"Bayview Avenue","ELEVTYP_F":0,"ELEVTYP_T":0},"geometry":{"type":"LineString","coordinates":[[-74.1180650809203,39.7425157145845],[-74.11814379203,39.7422563882696],[-74.1182005614302,39.7420420702938],[-74.1183182700894,39.7416885648144],[-74.1183302189458,39.7416564276271]]}},{"type":"Feature","id":91517,"properties":{"OBJECTID":91517,"PRIMENAME":"West 11th Street","ELEVTYP_F":0,"ELEVTYP_T":0},"geometry":{"type":"LineString","coordinates":[[-74.1078208785365,39.7553192457343],[-74.1096237905586,39.7559625745589],[-74.1114551033185,39.7566156083932]]}},{"type":"Feature","id":91797,"properties":{"OBJECTID":91797,"PRIMENAME":"West 20th Street","ELEVTYP_F":0,"ELEVTYP_T":0},"geometry":{"type":"LineString","coordinates":[[-74.1140719663115,39.7488432473506],[-74.1143991238944,39.7489557739096],[-74.1147318582627,39.7490827038614],[-74.1148242861263,39.7491230946653],[-74.1149461939699,39.749183514884],[-74.1150422213572,39.7492353389066],[-74.1151271362922,39.7492899255227],[-74.1152157343308,39.7493474075714],[-74.1152784679499,39.7493933823809],[-74.1153596680614,39.7494508677233],[-74.1154665707986,39.7495427286329],[-74.1155654798544,39.7496225308126],[-74.1156694622718,39.7497064273792],[-74.1159159293136,39.7499184850571],[-74.1159437276904,39.7499424026488],[-74.1162307498068,39.7501888131395]]}},{"type":"Feature","id":93593,"properties":{"OBJECTID":93593,"PRIMENAME":"West 6th Street","ELEVTYP_F":0,"ELEVTYP_T":0},"geometry":{"type":"LineString","coordinates":[[-74.1072836450665,39.7599753441695],[-74.1067499479508,39.7597815185128],[-74.1056628036995,39.7593953861514],[-74.1054126740897,39.7593065433569]]}},{"type":"Feature","id":96530,"properties":{"OBJECTID":96530,"PRIMENAME":"West 6th Street","ELEVTYP_F":0,"ELEVTYP_T":0},"geometry":{"type":"LineString","coordinates":[[-74.110101299287,39.7609760953065],[-74.1099749169011,39.760931564895],[-74.1093526215082,39.7607122921016]]}},{"type":"Feature","id":98317,"properties":{"OBJECTID":98317,"PRIMENAME":"West 4th Street","ELEVTYP_F":0,"ELEVTYP_T":0},"geometry":{"type":"LineString","coordinates":[[-74.1079257824667,39.7621432248073],[-74.1080713584861,39.7621942265388],[-74.1086693652502,39.7624037268712],[-74.1087655520648,39.7624297754522],[-74.1088117716344,39.7624391989814]]}},{"type":"Feature","id":101842,"properties":{"OBJECTID":101842,"PRIMENAME":"Bayview Avenue","ELEVTYP_F":0,"ELEVTYP_T":0},"geometry":{"type":"LineString","coordinates":[[-74.1114998869076,39.7547035076575],[-74.1115040307377,39.7545103496493],[-74.1115094537321,39.7543744940813],[-74.1115244108104,39.7541815370874],[-74.1115297170521,39.7540600128681],[-74.1115444682743,39.7539099126036],[-74.1115498145521,39.7537812501099],[-74.1115543355655,39.753742580957]]}},{"type":"Feature","id":103717,"properties":{"OBJECTID":103717,"PRIMENAME":"Unnamed Segment","ELEVTYP_F":0,"ELEVTYP_T":0},"geometry":{"type":"LineString","coordinates":[[-74.1051362361913,39.7616557719468],[-74.1047577798536,39.7615274033787]]}},{"type":"Feature","id":104208,"properties":{"OBJECTID":104208,"PRIMENAME":"Bayview Avenue","ELEVTYP_F":0,"ELEVTYP_T":0},"geometry":{"type":"LineString","coordinates":[[-74.1123521704851,39.7511261467369],[-74.1125113744212,39.7507959030571],[-74.1125863022061,39.750646003434],[-74.1126676685209,39.7505086437995],[-74.1127760293168,39.7503459794463],[-74.1127933900042,39.7503198454873]]}},{"type":"Feature","id":104933,"properties":{"OBJECTID":104933,"PRIMENAME":"West 27th Street","ELEVTYP_F":0,"ELEVTYP_T":0},"geometry":{"type":"LineString","coordinates":[[-74.1178054849459,39.7434006623961],[-74.1155139707743,39.7425702192318]]}},{"type":"Feature","id":106386,"properties":{"OBJECTID":106386,"PRIMENAME":"High Bar Way","ELEVTYP_F":0,"ELEVTYP_T":0},"geometry":{"type":"LineString","coordinates":[[-74.1189275543375,39.7555851569525],[-74.1188605883971,39.7555698370044],[-74.1187380669246,39.7555342380415],[-74.1186295660904,39.7555041210088],[-74.1185630026251,39.755493084351],[-74.1184788755546,39.7554873718766],[-74.1182123318572,39.7555027494219],[-74.1179703185265,39.7555208687923]]}},{"type":"Feature","id":107555,"properties":{"OBJECTID":107555,"PRIMENAME":"West 8th Street","ELEVTYP_F":0,"ELEVTYP_T":0},"geometry":{"type":"LineString","coordinates":[[-74.1066396355827,39.7577933400312],[-74.1063800446316,39.7577040835232]]}},{"type":"Feature","id":109433,"properties":{"OBJECTID":109433,"PRIMENAME":"West 6th Street","ELEVTYP_F":0,"ELEVTYP_T":0},"geometry":{"type":"LineString","coordinates":[[-74.1093526215082,39.7607122921016],[-74.1080118477246,39.7602398058742],[-74.1072836450665,39.7599753441695]]}},{"type":"Feature","id":110457,"properties":{"OBJECTID":110457,"PRIMENAME":"23rd Street","ELEVTYP_F":0,"ELEVTYP_T":0},"geometry":{"type":"LineString","coordinates":[[-74.1118662241605,39.7451438425159],[-74.1116127306648,39.7450541919125]]}},{"type":"Feature","id":111010,"properties":{"OBJECTID":111010,"PRIMENAME":"Central Avenue","ELEVTYP_F":0,"ELEVTYP_T":0},"geometry":{"type":"LineString","coordinates":[[-74.1111795377441,39.7497444899558],[-74.1107022715787,39.7505384465352]]}},{"type":"Feature","id":115150,"properties":{"OBJECTID":115150,"PRIMENAME":"Adrian Road","ELEVTYP_F":0,"ELEVTYP_T":0},"geometry":{"type":"LineString","coordinates":[[-74.1210699212178,39.7493477768608],[-74.1212727770961,39.7495200858558],[-74.1221872088772,39.7503152182325],[-74.1232862204277,39.7512482440054],[-74.1234595452762,39.7513918186043],[-74.1235666368345,39.7514579473708],[-74.1236996743625,39.751521277767],[-74.1238069840823,39.7515473778983],[-74.1239106570059,39.7515620176751]]}},{"type":"Feature","id":117642,"properties":{"OBJECTID":117642,"PRIMENAME":"East 30th Street","ELEVTYP_F":0,"ELEVTYP_T":0},"geometry":{"type":"LineString","coordinates":[[-74.1153741074485,39.739581244879],[-74.1169796580855,39.7401421836204]]}},{"type":"Feature","id":117705,"properties":{"OBJECTID":117705,"PRIMENAME":"Bayview Avenue","ELEVTYP_F":0,"ELEVTYP_T":0},"geometry":{"type":"LineString","coordinates":[[-74.1162831729227,39.7467388929701],[-74.1163644736492,39.7466368648771],[-74.1164670215593,39.7465192312461],[-74.1166163152909,39.7463159549663],[-74.1167516390669,39.7461305049666],[-74.1168403399835,39.7460020901857],[-74.116862494486,39.7459640284265]]}},{"type":"Feature","id":117845,"properties":{"OBJECTID":117845,"PRIMENAME":"Central Avenue","ELEVTYP_F":0,"ELEVTYP_T":0},"geometry":{"type":"LineString","coordinates":[[-74.1164818434688,39.7409717348194],[-74.1162927092787,39.7412879384764],[-74.1160012370435,39.7417679004525]]}},{"type":"Feature","id":120008,"properties":{"OBJECTID":120008,"PRIMENAME":"Central Avenue","ELEVTYP_F":0,"ELEVTYP_T":0},"geometry":{"type":"LineString","coordinates":[[-74.1131086257997,39.7465558027151],[-74.112625226889,39.7473603454371]]}},{"type":"Feature","id":120118,"properties":{"OBJECTID":120118,"PRIMENAME":"East 10th Street","ELEVTYP_F":0,"ELEVTYP_T":0},"geometry":{"type":"LineString","coordinates":[[-74.107343832998,39.7561106356625],[-74.1052650803585,39.7553633120201],[-74.1043768296976,39.7550439654809]]}},{"type":"Feature","id":121161,"properties":{"OBJECTID":121161,"PRIMENAME":"Bayview Avenue","ELEVTYP_F":0,"ELEVTYP_T":0},"geometry":{"type":"LineString","coordinates":[[-74.1108089577188,39.7583281560316],[-74.1109606097328,39.7580797870503],[-74.1110822039811,39.7578692880162],[-74.1111477130606,39.7577515343413],[-74.111208678459,39.7576194886139],[-74.1112508502292,39.7575338339859],[-74.1112537758954,39.7575259640749]]}},{"type":"Feature","id":121649,"properties":{"OBJECTID":121649,"PRIMENAME":"East 15th Street","ELEVTYP_F":0,"ELEVTYP_T":0},"geometry":{"type":"LineString","coordinates":[[-74.1077613015142,39.7514201449607],[-74.1097445850826,39.7521308195298]]}},{"type":"Feature","id":122938,"properties":{"OBJECTID":122938,"PRIMENAME":"East 9th Street","ELEVTYP_F":0,"ELEVTYP_T":0},"geometry":{"type":"LineString","coordinates":[[-74.1039008317787,39.7558439550231],[-74.1041991487693,39.755951431586],[-74.1064928487385,39.7567777588986],[-74.1068597557717,39.7569106207117]]}},{"type":"Feature","id":128263,"properties":{"OBJECTID":128263,"PRIMENAME":"Bayview Avenue","ELEVTYP_F":0,"ELEVTYP_T":0},"geometry":{"type":"LineString","coordinates":[[-74.1117004337342,39.752834152548],[-74.111736655133,39.7526736636959],[-74.1117888234024,39.7524665002187],[-74.1118501330786,39.7522593663775],[-74.1119113932392,39.752073675465],[-74.1119396130968,39.7519951392781],[-74.111958324068,39.7519503951709]]}},{"type":"Feature","id":129191,"properties":{"OBJECTID":129191,"PRIMENAME":"East 26th Street","ELEVTYP_F":0,"ELEVTYP_T":0},"geometry":{"type":"LineString","coordinates":[[-74.1133065774388,39.7427587229186],[-74.1150284485888,39.7433701258201]]}},{"type":"Feature","id":133438,"properties":{"OBJECTID":133438,"PRIMENAME":"4th Street","ELEVTYP_F":0,"ELEVTYP_T":0},"geometry":{"type":"LineString","coordinates":[[-74.1088117716344,39.7624391989814],[-74.1088655058191,39.7624501547588]]}},{"type":"Feature","id":133629,"properties":{"OBJECTID":133629,"PRIMENAME":"Central Avenue","ELEVTYP_F":0,"ELEVTYP_T":0},"geometry":{"type":"LineString","coordinates":[[-74.1097445850826,39.7521308195298],[-74.1092619548424,39.7529301886724]]}},{"type":"Feature","id":138418,"properties":{"OBJECTID":138418,"PRIMENAME":"Holly Drive","ELEVTYP_F":0,"ELEVTYP_T":0},"geometry":{"type":"LineString","coordinates":[[-74.117334417547,39.739527075118],[-74.1175868044734,39.739629709228],[-74.119476082611,39.7403022738915],[-74.1203855534907,39.740634133123],[-74.1217868572217,39.7411306148463],[-74.1218940839075,39.7411624272324],[-74.1219680860566,39.741182682837],[-74.1220494815971,39.7411972517309],[-74.1221568529613,39.7412090227281],[-74.1226641769964,39.7412450183599],[-74.1227715953957,39.7412481958166],[-74.1228345928445,39.741245572168],[-74.1229087007179,39.7412400751642],[-74.122975458101,39.7412259881377],[-74.1230311663958,39.7412032990908],[-74.1230868864648,39.7411720169301],[-74.1231352404413,39.7411350000941],[-74.1231761815236,39.7411008415651],[-74.1232023089797,39.7410637525496],[-74.1232210395706,39.7410265845749],[-74.1232323727097,39.7409894475336],[-74.123236273706,39.7409522863699],[-74.1232327931226,39.7409122458808],[-74.1232255477304,39.7408779318309],[-74.1232072223722,39.7408406985266],[-74.1231852298786,39.7407976876348],[-74.1231484428986,39.7407546836578],[-74.1230930727369,39.7407087369447],[-74.1230341237443,39.7406767951068],[-74.1230081514481,39.7406627212637],[-74.1229268811197,39.7406252555599],[-74.1228677072922,39.7406050496397]]}},{"type":"Feature","id":140133,"properties":{"OBJECTID":140133,"PRIMENAME":"15th Street","ELEVTYP_F":0,"ELEVTYP_T":0},"geometry":{"type":"LineString","coordinates":[[-74.1075287885022,39.7513368246857],[-74.1077613015142,39.7514201449607]]}},{"type":"Feature","id":142203,"properties":{"OBJECTID":142203,"PRIMENAME":"Central Avenue","ELEVTYP_F":0,"ELEVTYP_T":0},"geometry":{"type":"LineString","coordinates":[[-74.107343832998,39.7561106356625],[-74.1068597557717,39.7569106207117]]}},{"type":"Feature","id":148294,"properties":{"OBJECTID":148294,"PRIMENAME":"Central Avenue","ELEVTYP_F":0,"ELEVTYP_T":0},"geometry":{"type":"LineString","coordinates":[[-74.1107022715787,39.7505384465352],[-74.1102181359477,39.7513438552537]]}},{"type":"Feature","id":148370,"properties":{"OBJECTID":148370,"PRIMENAME":"Amherst Road","ELEVTYP_F":0,"ELEVTYP_T":0},"geometry":{"type":"LineString","coordinates":[[-74.1192766639833,39.7507032543329],[-74.1204974383716,39.7517253570446],[-74.1212775064376,39.7524046886213],[-74.1213676683246,39.7524832043577]]}},{"type":"Feature","id":148948,"properties":{"OBJECTID":148948,"PRIMENAME":"Central Avenue","ELEVTYP_F":0,"ELEVTYP_T":0},"geometry":{"type":"LineString","coordinates":[[-74.1150284485888,39.7433701258201],[-74.1145493523382,39.7441637643793]]}},{"type":"Feature","id":149848,"properties":{"OBJECTID":149848,"PRIMENAME":"Unnamed Segment","ELEVTYP_F":0,"ELEVTYP_T":0},"geometry":{"type":"LineString","coordinates":[[-74.1090428782867,39.7619263125393],[-74.109194023781,39.7616429018133]]}},{"type":"Feature","id":156823,"properties":{"OBJECTID":156823,"PRIMENAME":"Unnamed Segment","ELEVTYP_F":0,"ELEVTYP_T":0},"geometry":{"type":"LineString","coordinates":[[-74.119277909351,39.7529128997573],[-74.1185314150891,39.7529464147805]]}},{"type":"Feature","id":162642,"properties":{"OBJECTID":162642,"PRIMENAME":"Harbor View Court","ELEVTYP_F":0,"ELEVTYP_T":0},"geometry":{"type":"LineString","coordinates":[[-74.1189275543375,39.7555851569525],[-74.1189491478492,39.7560391445311],[-74.1189554156633,39.7561709133982]]}},{"type":"Feature","id":164128,"properties":{"OBJECTID":164128,"PRIMENAME":"Central Avenue","ELEVTYP_F":0,"ELEVTYP_T":0},"geometry":{"type":"LineString","coordinates":[[-74.1155139707743,39.7425702192318],[-74.1150776249434,39.7432886929812],[-74.1150284485888,39.7433701258201]]}},{"type":"Feature","id":164557,"properties":{"OBJECTID":164557,"PRIMENAME":"19th Street","ELEVTYP_F":0,"ELEVTYP_T":0},"geometry":{"type":"LineString","coordinates":[[-74.1133955661595,39.7495729134979],[-74.1145639011047,39.7499715711346]]}},{"type":"Feature","id":164977,"properties":{"OBJECTID":164977,"PRIMENAME":"Unnamed Segment","ELEVTYP_F":0,"ELEVTYP_T":0},"geometry":{"type":"LineString","coordinates":[[-74.1088117716344,39.7624391989814],[-74.1088395794397,39.7623927954279],[-74.1090657623934,39.7620193085016],[-74.1090428782867,39.7619263125393]]}},{"type":"Feature","id":165039,"properties":{"OBJECTID":165039,"PRIMENAME":"Central Avenue","ELEVTYP_F":0,"ELEVTYP_T":0},"geometry":{"type":"LineString","coordinates":[[-74.1160012370435,39.7417679004525],[-74.1155139707743,39.7425702192318]]}},{"type":"Feature","id":165822,"properties":{"OBJECTID":165822,"PRIMENAME":"Bayview Avenue","ELEVTYP_F":0,"ELEVTYP_T":0},"geometry":{"type":"LineString","coordinates":[[-74.1175497424111,39.7442756283982],[-74.1175822127236,39.7441599309235],[-74.1178054849459,39.7434006623961]]}},{"type":"Feature","id":167758,"properties":{"OBJECTID":167758,"PRIMENAME":"West 5th Street","ELEVTYP_F":0,"ELEVTYP_T":0},"geometry":{"type":"LineString","coordinates":[[-74.108638576099,39.7614430406053],[-74.109194023781,39.7616429018133]]}},{"type":"Feature","id":169747,"properties":{"OBJECTID":169747,"PRIMENAME":"East 6th Street","ELEVTYP_F":0,"ELEVTYP_T":0},"geometry":{"type":"LineString","coordinates":[[-74.1054126740897,39.7593065433569],[-74.103782475083,39.7587025602602]]}},{"type":"Feature","id":170047,"properties":{"OBJECTID":170047,"PRIMENAME":"Seaview Avenue","ELEVTYP_F":0,"ELEVTYP_T":0},"geometry":{"type":"LineString","coordinates":[[-74.1057698534309,39.7536044746884],[-74.1056545298757,39.7537959865938],[-74.1055257439623,39.7538945201106]]}},{"type":"Feature","id":170849,"properties":{"OBJECTID":170849,"PRIMENAME":"East 16th Street","ELEVTYP_F":0,"ELEVTYP_T":0},"geometry":{"type":"LineString","coordinates":[[-74.1102181359477,39.7513438552537],[-74.1099699293962,39.7512574723712],[-74.108461337599,39.7507176023659],[-74.1082209971599,39.7506309945684]]}},{"type":"Feature","id":173852,"properties":{"OBJECTID":173852,"PRIMENAME":"Auburn Road","ELEVTYP_F":0,"ELEVTYP_T":0},"geometry":{"type":"LineString","coordinates":[[-74.1183860067253,39.7513867534117],[-74.1189307409759,39.7509595072061],[-74.1192766639833,39.7507032543329]]}},{"type":"Feature","id":176102,"properties":{"OBJECTID":176102,"PRIMENAME":"Unnamed Segment","ELEVTYP_F":0,"ELEVTYP_T":0},"geometry":{"type":"LineString","coordinates":[[-74.1090428782867,39.7619263125393],[-74.1085022071385,39.7617309122971],[-74.108638576099,39.7614430406053]]}},{"type":"Feature","id":176624,"properties":{"OBJECTID":176624,"PRIMENAME":"Broadway","ELEVTYP_F":0,"ELEVTYP_T":0},"geometry":{"type":"LineString","coordinates":[[-74.1066396355827,39.7577933400312],[-74.1069175164396,39.7587389717024],[-74.1069620856615,39.7588896017912]]}},{"type":"Feature","id":176798,"properties":{"OBJECTID":176798,"PRIMENAME":"East 22nd Street","ELEVTYP_F":0,"ELEVTYP_T":0},"geometry":{"type":"LineString","coordinates":[[-74.1113448116247,39.7459227060304],[-74.1115017530944,39.7459790397932],[-74.1117708035245,39.7460756153508],[-74.1131086257997,39.7465558027151]]}},{"type":"Feature","id":176973,"properties":{"OBJECTID":176973,"PRIMENAME":"Unnamed Segment","ELEVTYP_F":0,"ELEVTYP_T":0},"geometry":{"type":"LineString","coordinates":[[-74.1192528476638,39.7522835823019],[-74.1180930978004,39.7523279550707]]}},{"type":"Feature","id":177092,"properties":{"OBJECTID":177092,"PRIMENAME":"Bayview Avenue","ELEVTYP_F":0,"ELEVTYP_T":0},"geometry":{"type":"LineString","coordinates":[[-74.1112537758954,39.7575259640749],[-74.1113025708921,39.7573945647994],[-74.1113544570926,39.7572195771312],[-74.1113876771171,39.7570874392955],[-74.1114162602891,39.756944522932],[-74.1114355568888,39.7568087417919],[-74.1114502072057,39.7566765408634],[-74.1114551033185,39.7566156083932]]}},{"type":"Feature","id":177246,"properties":{"OBJECTID":177246,"PRIMENAME":"Central Avenue","ELEVTYP_F":0,"ELEVTYP_T":0},"geometry":{"type":"LineString","coordinates":[[-74.1087827601955,39.7537238565394],[-74.1085331768585,39.7541371972803],[-74.1083010373626,39.7545224552562]]}},{"type":"Feature","id":179528,"properties":{"OBJECTID":179528,"PRIMENAME":"West 4th Street","ELEVTYP_F":0,"ELEVTYP_T":0},"geometry":{"type":"LineString","coordinates":[[-74.1079257824667,39.7621432248073],[-74.107695995752,39.7620519029635],[-74.1071708389226,39.7618670867596],[-74.1069019216938,39.761770081423],[-74.1066346346624,39.7616736637685],[-74.1057618721192,39.7613618377844],[-74.1054031622458,39.7612314540621]]}},{"type":"Feature","id":180287,"properties":{"OBJECTID":180287,"PRIMENAME":"West 15th Street","ELEVTYP_F":0,"ELEVTYP_T":0},"geometry":{"type":"LineString","coordinates":[[-74.1097445850826,39.7521308195298],[-74.1105099370812,39.7524050277678],[-74.1117004337342,39.752834152548]]}},{"type":"Feature","id":180914,"properties":{"OBJECTID":180914,"PRIMENAME":"West 7th Street","ELEVTYP_F":0,"ELEVTYP_T":0},"geometry":{"type":"LineString","coordinates":[[-74.1069620856615,39.7588896017912],[-74.1085212013825,39.7594443225964],[-74.1098386664226,39.7599099150172],[-74.1098422167979,39.7599111348485]]}},{"type":"Feature","id":185026,"properties":{"OBJECTID":185026,"PRIMENAME":"East 13th Street","ELEVTYP_F":0,"ELEVTYP_T":0},"geometry":{"type":"LineString","coordinates":[[-74.1064593055195,39.7529025723988],[-74.1067578445978,39.7530070256847],[-74.1076148193284,39.7533068571395],[-74.1087827601955,39.7537238565394]]}},{"type":"Feature","id":191414,"properties":{"OBJECTID":191414,"PRIMENAME":"West 21st Street","ELEVTYP_F":0,"ELEVTYP_T":0},"geometry":{"type":"LineString","coordinates":[[-74.114837790761,39.7481606018781],[-74.1146263219582,39.7480756965194],[-74.1140273441054,39.74785920198],[-74.1133803098329,39.747625413019],[-74.1128885429416,39.7474521811492],[-74.112625226889,39.7473603454371]]}},{"type":"Feature","id":192917,"properties":{"OBJECTID":192917,"PRIMENAME":"Bayview Avenue","ELEVTYP_F":0,"ELEVTYP_T":0},"geometry":{"type":"LineString","coordinates":[[-74.1103233824263,39.7591205731782],[-74.1104183491785,39.7589645642603],[-74.1107689250201,39.7583937481827],[-74.1108089577188,39.7583281560316]]}},{"type":"Feature","id":195735,"properties":{"OBJECTID":195735,"PRIMENAME":"7th Street","ELEVTYP_F":0,"ELEVTYP_T":0},"geometry":{"type":"LineString","coordinates":[[-74.1098422167979,39.7599111348485],[-74.1103009628706,39.760068755909]]}},{"type":"Feature","id":196295,"properties":{"OBJECTID":196295,"PRIMENAME":"Sunset Boulevard","ELEVTYP_F":0,"ELEVTYP_T":0},"geometry":{"type":"LineString","coordinates":[[-74.1193231027898,39.753568311088],[-74.1193544604263,39.754023311684],[-74.1193656673496,39.754179071896],[-74.1194004163168,39.7546619345797],[-74.1194596021725,39.75548441391],[-74.1194666034874,39.7555890943747]]}},{"type":"Feature","id":197128,"properties":{"OBJECTID":197128,"PRIMENAME":"Long Beach Boulevard","ELEVTYP_F":0,"ELEVTYP_T":0},"geometry":{"type":"LineString","coordinates":[[-74.117334417547,39.739527075118],[-74.1171838060623,39.7397925457175]]}},{"type":"Feature","id":200947,"properties":{"OBJECTID":200947,"PRIMENAME":"West 7th Street","ELEVTYP_F":0,"ELEVTYP_T":0},"geometry":{"type":"LineString","coordinates":[[-74.1058933467946,39.758510672266],[-74.1060628006219,39.7585707533338],[-74.1069620856615,39.7588896017912]]}},{"type":"Feature","id":202993,"properties":{"OBJECTID":202993,"PRIMENAME":"Alma Road","ELEVTYP_F":0,"ELEVTYP_T":0},"geometry":{"type":"LineString","coordinates":[[-74.1254737016751,39.7534419579773],[-74.1252933584276,39.7534825850389],[-74.1249966180878,39.7535388429805],[-74.1248445995835,39.7535641040632],[-74.1247148386854,39.753577961418],[-74.1244553619396,39.7535971367755],[-74.1242552566848,39.7536022269474],[-74.1240700300879,39.7535987718546],[-74.1238848295998,39.7535838680824],[-74.1237107943059,39.7535632624643],[-74.1235146101784,39.7535340456877],[-74.1233147533178,39.7534933402695],[-74.1231222806145,39.7534555417668],[-74.1229446869055,39.7534091981707],[-74.1227487014533,39.7533370692547],[-74.1222941091344,39.753138273743]]}},{"type":"Feature","id":205422,"properties":{"OBJECTID":205422,"PRIMENAME":"Central Avenue","ELEVTYP_F":0,"ELEVTYP_T":0},"geometry":{"type":"LineString","coordinates":[[-74.1058933467946,39.758510672266],[-74.105829424334,39.7586165952615],[-74.1054126740897,39.7593065433569]]}},{"type":"Feature","id":206356,"properties":{"OBJECTID":206356,"PRIMENAME":"Central Avenue","ELEVTYP_F":0,"ELEVTYP_T":0},"geometry":{"type":"LineString","coordinates":[[-74.1065369722134,39.7574440150236],[-74.1066019850668,39.7576652275212],[-74.1066396355827,39.7577933400312]]}},{"type":"Feature","id":207640,"properties":{"OBJECTID":207640,"PRIMENAME":"5th Street","ELEVTYP_F":0,"ELEVTYP_T":0},"geometry":{"type":"LineString","coordinates":[[-74.1054126740897,39.7593065433569],[-74.1052570687052,39.7595641160738],[-74.104933254643,39.760099068533]]}},{"type":"Feature","id":209193,"properties":{"OBJECTID":209193,"PRIMENAME":"East 17th Street","ELEVTYP_F":0,"ELEVTYP_T":0},"geometry":{"type":"LineString","coordinates":[[-74.1086961919919,39.7498060997657],[-74.109047385325,39.7499445566797],[-74.1107022715787,39.7505384465352]]}},{"type":"Feature","id":212326,"properties":{"OBJECTID":212326,"PRIMENAME":"Unnamed Segment","ELEVTYP_F":0,"ELEVTYP_T":0},"geometry":{"type":"LineString","coordinates":[[-74.1193231027898,39.753568311088],[-74.1185769668357,39.7535933443499]]}},{"type":"Feature","id":216976,"properties":{"OBJECTID":216976,"PRIMENAME":"East 14th Street","ELEVTYP_F":0,"ELEVTYP_T":0},"geometry":{"type":"LineString","coordinates":[[-74.1092619548424,39.7529301886724],[-74.1080455309803,39.752496832259],[-74.107136506276,39.7521662736383],[-74.1068046888807,39.7520456104836],[-74.1066959582445,39.7520060714336]]}},{"type":"Feature","id":217689,"properties":{"OBJECTID":217689,"PRIMENAME":"East 11th Street","ELEVTYP_F":0,"ELEVTYP_T":0},"geometry":{"type":"LineString","coordinates":[[-74.1051172301318,39.7543386753662],[-74.1078208785365,39.7553192457343]]}},{"type":"Feature","id":217820,"properties":{"OBJECTID":217820,"PRIMENAME":"West 9th Street","ELEVTYP_F":0,"ELEVTYP_T":0},"geometry":{"type":"LineString","coordinates":[[-74.1068597557717,39.7569106207117],[-74.1096821397587,39.7579325109111],[-74.1108089577188,39.7583281560316]]}},{"type":"Feature","id":218513,"properties":{"OBJECTID":218513,"PRIMENAME":"Bayview Avenue","ELEVTYP_F":0,"ELEVTYP_T":0},"geometry":{"type":"LineString","coordinates":[[-74.114837790761,39.7481606018781],[-74.1151907834414,39.747848404074],[-74.1153722650058,39.7476845789199],[-74.115549137974,39.7475242799453],[-74.1156145908047,39.7474647268157]]}},{"type":"Feature","id":219120,"properties":{"OBJECTID":219120,"PRIMENAME":"Cedar Avenue","ELEVTYP_F":0,"ELEVTYP_T":0},"geometry":{"type":"LineString","coordinates":[[-74.117710423145,39.7387986745975],[-74.11782349496,39.7388398723625]]}},{"type":"Feature","id":220246,"properties":{"OBJECTID":220246,"PRIMENAME":"West 29th Street","ELEVTYP_F":0,"ELEVTYP_T":0},"geometry":{"type":"LineString","coordinates":[[-74.1183302189458,39.7416564276271],[-74.1164818434688,39.7409717348194]]}},{"type":"Feature","id":221077,"properties":{"OBJECTID":221077,"PRIMENAME":"Auburn Road","ELEVTYP_F":0,"ELEVTYP_T":0},"geometry":{"type":"LineString","coordinates":[[-74.1210699212178,39.7493477768608],[-74.1213972391772,39.749108643064],[-74.1215050451578,39.7490432131771],[-74.1216016093095,39.7489977881338],[-74.1217018762516,39.748958057881],[-74.1217909495141,39.7489297683718],[-74.1218799591052,39.7489128991407],[-74.1219689374471,39.7489017395662],[-74.122028278056,39.7488990783383],[-74.1220911791054,39.7489021375973],[-74.122157803378,39.7489138038564],[-74.1222317826957,39.7489397690305],[-74.1223019978965,39.7489714614612],[-74.1223721183183,39.7490203118448],[-74.1225343494294,39.749155257765],[-74.1227482222129,39.7493561257279],[-74.1234046253366,39.7499159465406],[-74.1237803987604,39.7502465361499],[-74.1238581471988,39.7503149349097]]}},{"type":"Feature","id":223266,"properties":{"OBJECTID":223266,"PRIMENAME":"West 8th Street","ELEVTYP_F":0,"ELEVTYP_T":0},"geometry":{"type":"LineString","coordinates":[[-74.1103233824263,39.7591205731782],[-74.1095611894722,39.7588472527669],[-74.1081420122507,39.7583563019574],[-74.1066396355827,39.7577933400312]]}},{"type":"Feature","id":227991,"properties":{"OBJECTID":227991,"PRIMENAME":"West 25th Street","ELEVTYP_F":0,"ELEVTYP_T":0},"geometry":{"type":"LineString","coordinates":[[-74.1172821470108,39.7451319397983],[-74.1145493523382,39.7441637643793]]}},{"type":"Feature","id":230417,"properties":{"OBJECTID":230417,"PRIMENAME":"Arnold Boulevard","ELEVTYP_F":0,"ELEVTYP_T":0},"geometry":{"type":"LineString","coordinates":[[-74.1182568192955,39.7514712193603],[-74.1183860067253,39.7513867534117]]}},{"type":"Feature","id":236802,"properties":{"OBJECTID":236802,"PRIMENAME":"East 29th Street","ELEVTYP_F":0,"ELEVTYP_T":0},"geometry":{"type":"LineString","coordinates":[[-74.1164818434688,39.7409717348194],[-74.1148708624992,39.7404188149035]]}},{"type":"Feature","id":239227,"properties":{"OBJECTID":239227,"PRIMENAME":"West 19th Street","ELEVTYP_F":0,"ELEVTYP_T":0},"geometry":{"type":"LineString","coordinates":[[-74.1116646914222,39.7489439128769],[-74.1128629561125,39.7493739310248],[-74.1133955661595,39.7495729134979]]}},{"type":"Feature","id":250471,"properties":{"OBJECTID":250471,"PRIMENAME":"West 30th Street","ELEVTYP_F":0,"ELEVTYP_T":0},"geometry":{"type":"LineString","coordinates":[[-74.118406601679,39.7407808421157],[-74.1183422013641,39.7407091381276],[-74.1182594252408,39.7406479268275],[-74.1182499373917,39.7406409121367],[-74.1181530059063,39.7405869736787],[-74.1180375481887,39.7405329471612],[-74.1178250246062,39.7404428818963],[-74.1175431253476,39.7403454501808],[-74.1169796580855,39.7401421836204]]}},{"type":"Feature","id":251992,"properties":{"OBJECTID":251992,"PRIMENAME":"Sunset Boulevard","ELEVTYP_F":0,"ELEVTYP_T":0},"geometry":{"type":"LineString","coordinates":[[-74.1193196956662,39.752184085467],[-74.1192636497213,39.7522467736566],[-74.1192528476638,39.7522835823019]]}},{"type":"Feature","id":263998,"properties":{"OBJECTID":263998,"PRIMENAME":"Central Avenue","ELEVTYP_F":0,"ELEVTYP_T":0},"geometry":{"type":"LineString","coordinates":[[-74.1078208785365,39.7553192457343],[-74.1073774069508,39.7560551255711],[-74.107343832998,39.7561106356625]]}},{"type":"Feature","id":265047,"properties":{"OBJECTID":265047,"PRIMENAME":"West 10th Street","ELEVTYP_F":0,"ELEVTYP_T":0},"geometry":{"type":"LineString","coordinates":[[-74.1112537758954,39.7575259640749],[-74.1076492595968,39.7562204711496],[-74.107343832998,39.7561106356625]]}},{"type":"Feature","id":271877,"properties":{"OBJECTID":271877,"PRIMENAME":"Long Beach Boulevard","ELEVTYP_F":0,"ELEVTYP_T":0},"geometry":{"type":"LineString","coordinates":[[-74.117334417547,39.739527075118],[-74.1174766494011,39.7394015536891],[-74.1175738190439,39.7392446124077],[-74.11782349496,39.7388398723625]]}},{"type":"Feature","id":273905,"properties":{"OBJECTID":273905,"PRIMENAME":"Arnold Boulevard","ELEVTYP_F":0,"ELEVTYP_T":0},"geometry":{"type":"LineString","coordinates":[[-74.1183860067253,39.7513867534117],[-74.1193196956662,39.752184085467]]}},{"type":"Feature","id":274398,"properties":{"OBJECTID":274398,"PRIMENAME":"West 3rd Street","ELEVTYP_F":0,"ELEVTYP_T":0},"geometry":{"type":"LineString","coordinates":[[-74.1053803904144,39.7621956313972],[-74.1062864778477,39.7625104286183],[-74.1063568121888,39.7625221156194],[-74.1064234632519,39.7625309077101],[-74.1064790477035,39.7625339515311],[-74.1065494635057,39.762531334889],[-74.1067606922645,39.7625206022649],[-74.1070462400151,39.7624901333926],[-74.1073206697555,39.7624567438259],[-74.1075691464638,39.7624203834877],[-74.1079845976898,39.7623417293095]]}},{"type":"Feature","id":275381,"properties":{"OBJECTID":275381,"PRIMENAME":"High Bar Way","ELEVTYP_F":0,"ELEVTYP_T":0},"geometry":{"type":"LineString","coordinates":[[-74.1194666034874,39.7555890943747],[-74.1190743360025,39.7555948641649],[-74.119011219767,39.7555973745653],[-74.1189446423317,39.7555890574283],[-74.1189275543375,39.7555851569525]]}},{"type":"Feature","id":275835,"properties":{"OBJECTID":275835,"PRIMENAME":"East 25th Street","ELEVTYP_F":0,"ELEVTYP_T":0},"geometry":{"type":"LineString","coordinates":[[-74.1145493523382,39.7441637643793],[-74.1127512444573,39.7435218990135]]}},{"type":"Feature","id":276314,"properties":{"OBJECTID":276314,"PRIMENAME":"West 4th Street","ELEVTYP_F":0,"ELEVTYP_T":0},"geometry":{"type":"LineString","coordinates":[[-74.104933254643,39.760099068533],[-74.1047595486716,39.7603860647727],[-74.1045185496465,39.7607890480989],[-74.1045101675518,39.7608178199104],[-74.1045123564606,39.760845665746],[-74.1045233428698,39.7608714833576]]}},{"type":"Feature","id":286958,"properties":{"OBJECTID":286958,"PRIMENAME":"East 23rd Street","ELEVTYP_F":0,"ELEVTYP_T":0},"geometry":{"type":"LineString","coordinates":[[-74.1135905415388,39.745753641693],[-74.1118662241605,39.7451438425159]]}},{"type":"Feature","id":287023,"properties":{"OBJECTID":287023,"PRIMENAME":"Central Avenue","ELEVTYP_F":0,"ELEVTYP_T":0},"geometry":{"type":"LineString","coordinates":[[-74.1140634607268,39.7449685529004],[-74.1138025616767,39.7454007567123],[-74.1135905415388,39.745753641693]]}},{"type":"Feature","id":288864,"properties":{"OBJECTID":288864,"PRIMENAME":"East 20th Street","ELEVTYP_F":0,"ELEVTYP_T":0},"geometry":{"type":"LineString","coordinates":[[-74.1103615713231,39.7475009149792],[-74.1104682917658,39.747539516105],[-74.1107218594305,39.7476312285342],[-74.1121483176691,39.7481471440979]]}},{"type":"Feature","id":291612,"properties":{"OBJECTID":291612,"PRIMENAME":"East 24th Street","ELEVTYP_F":0,"ELEVTYP_T":0},"geometry":{"type":"LineString","coordinates":[[-74.1121865911323,39.7442957501671],[-74.1123475521414,39.7443534500476],[-74.1140634607268,39.7449685529004]]}},{"type":"Feature","id":292263,"properties":{"OBJECTID":292263,"PRIMENAME":"West 12th Street","ELEVTYP_F":0,"ELEVTYP_T":0},"geometry":{"type":"LineString","coordinates":[[-74.1114809179103,39.7556613949217],[-74.1086354553456,39.7546437254702],[-74.1083010373626,39.7545224552562]]}},{"type":"Feature","id":294175,"properties":{"OBJECTID":294175,"PRIMENAME":"Whalers Cove","ELEVTYP_F":0,"ELEVTYP_T":0},"geometry":{"type":"LineString","coordinates":[[-74.1173784377711,39.739399138493],[-74.1160279347183,39.7388877191587]]}},{"type":"Feature","id":295290,"properties":{"OBJECTID":295290,"PRIMENAME":"East 12th Street","ELEVTYP_F":0,"ELEVTYP_T":0},"geometry":{"type":"LineString","coordinates":[[-74.1083010373626,39.7545224552562],[-74.1058368357581,39.7536287682544],[-74.1057698534309,39.7536044746884]]}},{"type":"Feature","id":297938,"properties":{"OBJECTID":297938,"PRIMENAME":"9th Street","ELEVTYP_F":0,"ELEVTYP_T":0},"geometry":{"type":"LineString","coordinates":[[-74.1034977293793,39.7556987263071],[-74.1039008317787,39.7558439550231]]}},{"type":"Feature","id":298940,"properties":{"OBJECTID":298940,"PRIMENAME":"Central Avenue","ELEVTYP_F":0,"ELEVTYP_T":0},"geometry":{"type":"LineString","coordinates":[[-74.1135905415388,39.745753641693],[-74.1131086257997,39.7465558027151]]}},{"type":"Feature","id":299708,"properties":{"OBJECTID":299708,"PRIMENAME":"Cedar Avenue","ELEVTYP_F":0,"ELEVTYP_T":0},"geometry":{"type":"LineString","coordinates":[[-74.11782349496,39.7388398723625],[-74.1181758097322,39.7389681748526],[-74.1189816966187,39.7392682412835],[-74.1200464032858,39.7396606834344],[-74.1215912783432,39.7402154797592],[-74.121758174802,39.7402754135234]]}},{"type":"Feature","id":304766,"properties":{"OBJECTID":304766,"PRIMENAME":"West 20th Street","ELEVTYP_F":0,"ELEVTYP_T":0},"geometry":{"type":"LineString","coordinates":[[-74.1121483176691,39.7481471440979],[-74.1140719663115,39.7488432473506]]}},{"type":"Feature","id":305096,"properties":{"OBJECTID":305096,"PRIMENAME":"Central Avenue","ELEVTYP_F":0,"ELEVTYP_T":0},"geometry":{"type":"LineString","coordinates":[[-74.1116646914222,39.7489439128769],[-74.1112634435573,39.7496048888305],[-74.1111795377441,39.7497444899558]]}},{"type":"Feature","id":307554,"properties":{"OBJECTID":307554,"PRIMENAME":"Unnamed Segment","ELEVTYP_F":0,"ELEVTYP_T":0},"geometry":{"type":"LineString","coordinates":[[-74.1054031622458,39.7612314540621],[-74.1051362361913,39.7616557719468]]}},{"type":"Feature","id":307590,"properties":{"OBJECTID":307590,"PRIMENAME":"Central Avenue","ELEVTYP_F":0,"ELEVTYP_T":0},"geometry":{"type":"LineString","coordinates":[[-74.1063800446316,39.7577040835232],[-74.1058933467946,39.758510672266]]}},{"type":"Feature","id":310605,"properties":{"OBJECTID":310605,"PRIMENAME":"Central Avenue","ELEVTYP_F":0,"ELEVTYP_T":0},"geometry":{"type":"LineString","coordinates":[[-74.1092619548424,39.7529301886724],[-74.1087827601955,39.7537238565394]]}},{"type":"Feature","id":311811,"properties":{"OBJECTID":311811,"PRIMENAME":"Arnold Boulevard","ELEVTYP_F":0,"ELEVTYP_T":0},"geometry":{"type":"LineString","coordinates":[[-74.1208706576104,39.7535030647586],[-74.1209984557521,39.753594494267],[-74.1210870329032,39.7536576824615],[-74.1212162476969,39.7537439001392],[-74.1213639929147,39.753830178119],[-74.1214785003462,39.7538934785164],[-74.1216078089431,39.7539625089494],[-74.121755665601,39.7540288001646],[-74.121929333388,39.7541037134231],[-74.1221031087654,39.754178653794],[-74.1222620945134,39.7542392149265],[-74.122447015339,39.7543055988461],[-74.1226689787636,39.7543692466297],[-74.1228872913412,39.7544242890222],[-74.123127814388,39.7544765477573],[-74.1234017844041,39.7545203214087],[-74.1236350535319,39.7545525410085],[-74.1238720804929,39.7545676131278],[-74.1240794937262,39.7545797335001],[-74.124286989897,39.7545832606647],[-74.124524125932,39.7545782902337],[-74.1247279796266,39.7545646726609],[-74.1249355491841,39.7545482122764],[-74.1251135700355,39.7545230071403],[-74.12516988829,39.7545145130407]]}},{"type":"Feature","id":315333,"properties":{"OBJECTID":315333,"PRIMENAME":"Broadway","ELEVTYP_F":0,"ELEVTYP_T":0},"geometry":{"type":"LineString","coordinates":[[-74.1069620856615,39.7588896017912],[-74.1072836450665,39.7599753441695]]}},{"type":"Feature","id":315749,"properties":{"OBJECTID":315749,"PRIMENAME":"West 22nd Street","ELEVTYP_F":0,"ELEVTYP_T":0},"geometry":{"type":"LineString","coordinates":[[-74.1131086257997,39.7465558027151],[-74.1156145908047,39.7474647268157]]}},{"type":"Feature","id":316426,"properties":{"OBJECTID":316426,"PRIMENAME":"Long Beach Boulevard","ELEVTYP_F":0,"ELEVTYP_T":0},"geometry":{"type":"LineString","coordinates":[[-74.11782349496,39.7388398723625],[-74.1180297864366,39.7385054103222],[-74.1181545358922,39.7383074527706]]}},{"type":"Feature","id":321087,"properties":{"OBJECTID":321087,"PRIMENAME":"Bayview Avenue","ELEVTYP_F":0,"ELEVTYP_T":0},"geometry":{"type":"LineString","coordinates":[[-74.116862494486,39.7459640284265],[-74.1169712561164,39.7457773105074],[-74.1170835434212,39.7455703418267],[-74.1171771229909,39.7453954886885],[-74.1172428075125,39.7452419866571],[-74.1172821470108,39.7451319397983]]}},{"type":"Feature","id":321453,"properties":{"OBJECTID":321453,"PRIMENAME":"Bayview Avenue","ELEVTYP_F":0,"ELEVTYP_T":0},"geometry":{"type":"LineString","coordinates":[[-74.1114551033185,39.7566156083932],[-74.1114651250426,39.7564906951992],[-74.1114707931831,39.7563048176659],[-74.1114809179103,39.7556613949217]]}},{"type":"Feature","id":321887,"properties":{"OBJECTID":321887,"PRIMENAME":"West 4th Street","ELEVTYP_F":0,"ELEVTYP_T":0},"geometry":{"type":"LineString","coordinates":[[-74.1054031622458,39.7612314540621],[-74.1052055735408,39.7611596333481],[-74.1052035679576,39.7611589041302],[-74.1046679817676,39.7609642257186],[-74.1046340489213,39.7609518915557],[-74.1045749296647,39.7609202542208],[-74.104549309009,39.7608968854192],[-74.1045233428698,39.7608714833576]]}},{"type":"Feature","id":322831,"properties":{"OBJECTID":322831,"PRIMENAME":"West 5th Street","ELEVTYP_F":0,"ELEVTYP_T":0},"geometry":{"type":"LineString","coordinates":[[-74.109194023781,39.7616429018133],[-74.1098891756703,39.7618930257846]]}},{"type":"Feature","id":326253,"properties":{"OBJECTID":326253,"PRIMENAME":"West 28th Street","ELEVTYP_F":0,"ELEVTYP_T":0},"geometry":{"type":"LineString","coordinates":[[-74.1160012370435,39.7417679004525],[-74.1180650809203,39.7425157145845]]}},{"type":"Feature","id":328263,"properties":{"OBJECTID":328263,"PRIMENAME":"Central Avenue","ELEVTYP_F":0,"ELEVTYP_T":0},"geometry":{"type":"LineString","coordinates":[[-74.112625226889,39.7473603454371],[-74.11256107154,39.7474671777474],[-74.1121483176691,39.7481471440979]]}},{"type":"Feature","id":330698,"properties":{"OBJECTID":330698,"PRIMENAME":"Unnamed Segment","ELEVTYP_F":0,"ELEVTYP_T":0},"geometry":{"type":"LineString","coordinates":[[-74.105572711306,39.7618106867972],[-74.1051362361913,39.7616557719468]]}},{"type":"Feature","id":335935,"properties":{"OBJECTID":335935,"PRIMENAME":"Bayview Avenue","ELEVTYP_F":0,"ELEVTYP_T":0},"geometry":{"type":"LineString","coordinates":[[-74.1172821470108,39.7451319397983],[-74.1173180910808,39.7450313539771],[-74.1173793137494,39.7448420631133],[-74.1174830234509,39.744513523543],[-74.1175497424111,39.7442756283982]]}},{"type":"Feature","id":337870,"properties":{"OBJECTID":337870,"PRIMENAME":"East 27th Street","ELEVTYP_F":0,"ELEVTYP_T":0},"geometry":{"type":"LineString","coordinates":[[-74.1155139707743,39.7425702192318],[-74.1138526811833,39.7419776668569]]}},{"type":"Feature","id":339807,"properties":{"OBJECTID":339807,"PRIMENAME":"East 8th Street","ELEVTYP_F":0,"ELEVTYP_T":0},"geometry":{"type":"LineString","coordinates":[[-74.1063800446316,39.7577040835232],[-74.1054796201786,39.7573927649728],[-74.103804171939,39.7567843271932],[-74.1035373337253,39.7566874210926],[-74.1034227930452,39.7566458234732]]}},{"type":"Feature","id":340344,"properties":{"OBJECTID":340344,"PRIMENAME":"West 13th Street","ELEVTYP_F":0,"ELEVTYP_T":0},"geometry":{"type":"LineString","coordinates":[[-74.1087827601955,39.7537238565394],[-74.1111414830639,39.7545770590178],[-74.1114998869076,39.7547035076575]]}},{"type":"Feature","id":341033,"properties":{"OBJECTID":341033,"PRIMENAME":"Broadway","ELEVTYP_F":0,"ELEVTYP_T":0},"geometry":{"type":"LineString","coordinates":[[-74.1079845976898,39.7623417293095],[-74.1081958005526,39.7630195509461],[-74.1082339190968,39.7631418870431]]}},{"type":"Feature","id":345815,"properties":{"OBJECTID":345815,"PRIMENAME":"Long Beach Boulevard","ELEVTYP_F":0,"ELEVTYP_T":0},"geometry":{"type":"LineString","coordinates":[[-74.1169796580855,39.7401421836204],[-74.1169640199569,39.7401681473947],[-74.1167451354761,39.7405315699042],[-74.1164818434688,39.7409717348194]]}},{"type":"Feature","id":347283,"properties":{"OBJECTID":347283,"PRIMENAME":"Arnold Boulevard","ELEVTYP_F":0,"ELEVTYP_T":0},"geometry":{"type":"LineString","coordinates":[[-74.1193196956662,39.752184085467],[-74.1196264929094,39.7524460487667],[-74.120861906971,39.753496803923],[-74.1208706576104,39.7535030647586]]}},{"type":"Feature","id":351252,"properties":{"OBJECTID":351252,"PRIMENAME":"Long Beach Boulevard","ELEVTYP_F":0,"ELEVTYP_T":0},"geometry":{"type":"LineString","coordinates":[[-74.117710423145,39.7387986745975],[-74.1174432998627,39.7392586240441],[-74.1173946437389,39.7393499705845],[-74.1173784377711,39.739399138493]]}},{"type":"Feature","id":356780,"properties":{"OBJECTID":356780,"PRIMENAME":"Sunset Boulevard","ELEVTYP_F":0,"ELEVTYP_T":0},"geometry":{"type":"LineString","coordinates":[[-74.1196367856145,39.7555865779208],[-74.1195766737665,39.7547714412303],[-74.1195688283814,39.7546551374835],[-74.119536617016,39.7541776831304]]}},{"type":"Feature","id":362029,"properties":{"OBJECTID":362029,"PRIMENAME":"Sunset Boulevard","ELEVTYP_F":0,"ELEVTYP_T":0},"geometry":{"type":"LineString","coordinates":[[-74.1197267067826,39.7581029893639],[-74.1197922839973,39.757873216268],[-74.1196937204706,39.7563587367474],[-74.1196367856145,39.7555865779208]]}},{"type":"Feature","id":373644,"properties":{"OBJECTID":373644,"PRIMENAME":"Sunset Boulevard","ELEVTYP_F":0,"ELEVTYP_T":0},"geometry":{"type":"LineString","coordinates":[[-74.119536617016,39.7541776831304],[-74.1195069189627,39.753737486371],[-74.1194949643271,39.7535618974139],[-74.1194506567408,39.7529110450193],[-74.1194196774247,39.7524559690391],[-74.1194015116074,39.7523248952084],[-74.1193196956662,39.752184085467]]}},{"type":"Feature","id":374911,"properties":{"OBJECTID":374911,"PRIMENAME":"Long Beach Boulevard","ELEVTYP_F":0,"ELEVTYP_T":0},"geometry":{"type":"LineString","coordinates":[[-74.1177486644226,39.7387328595279],[-74.117710423145,39.7387986745975]]}},{"type":"Feature","id":374957,"properties":{"OBJECTID":374957,"PRIMENAME":"Holly Drive","ELEVTYP_F":0,"ELEVTYP_T":0},"geometry":{"type":"LineString","coordinates":[[-74.1173784377711,39.739399138493],[-74.1173682765333,39.7394299690984],[-74.117334417547,39.739527075118]]}},{"type":"Feature","id":434734,"properties":{"OBJECTID":434734,"PRIMENAME":"Central Avenue","ELEVTYP_F":0,"ELEVTYP_T":0},"geometry":{"type":"LineString","coordinates":[[-74.1078208785365,39.7553192457343],[-74.1083010373626,39.7545224552562]]}},{"type":"Feature","id":434735,"properties":{"OBJECTID":434735,"PRIMENAME":"Broadway","ELEVTYP_F":0,"ELEVTYP_T":0},"geometry":{"type":"LineString","coordinates":[[-74.1076042723223,39.7610578423439],[-74.1075101351101,39.7607400380966],[-74.1072836450665,39.7599753441695]]}}]}
